IRIDIUM 112             
1 41925U 17003J   25050.89354437 -.00000003  00000+0 -79963-5 0  9990
2 41925  86.3944 289.8359 0001795  90.0917 270.0484 14.34217225424140
IRIDIUM 113             
1 42803U 17039A   25050.86082206  .00000137  00000+0  41805-4 0  9993
2 42803  86.4042 163.7591 0001994 111.2213 248.9196 14.34218911402053
IRIDIUM 120             
1 42805U 17039C   25050.85448087  .00000174  00000+0  55249-4 0  9995
2 42805  86.4033 163.6070 0002207  89.5804 270.5645 14.34217858402045
IRIDIUM 118             
1 42807U 17039E   25050.93401463  .00000547  00000+0  18835-3 0  9996
2 42807  86.4015 195.1458 0001995  96.1745 263.9678 14.34218967400826
IRIDIUM 117             
1 42808U 17039F   25050.95304392  .00000045  00000+0  88713-5 0  9999
2 42808  86.4014 195.1002 0002357  94.2931 265.8534 14.34217642400854
